NORAD_CAT_ID,OBJECT_NAME,OBJECT_TYPE,EPOCH,MEAN_MOTION,ECCENTRICITY,INCLINATION,RA_OF_ASC_NODE,ARG_OF_PERICENTER,MEAN_ANOMALY,BSTAR,MEAN_MOTION_DOT,MEAN_MOTION_DDOT,TLE_LINE0,TLE_LINE1,TLE_LINE2,SEMIMAJOR_AXIS,PERIOD,APOGEE,PERIGEE,DECAYED
52702.0,STARLINK-4033,PAYLOAD,2024-05-09 13:24:07,15.08828703,9.93e-05,53.2174,272.9966,83.9112,276.1993,9.1066e-05,1.161e-05,0.0,0 STARLINK-4033,1 52702U 22053AY  24130.55841935  .00001161  00000-0  91066-4 0  9993,2 52702  53.2174 272.9966 0000993  83.9112 276.1993 15.08828703109667,6917.915,95.438,540.467,539.093,0.0
52702.0,STARLINK-4033,PAYLOAD,2024-05-09 14:59:30,15.08830042,0.0001037,53.2176,272.6995,82.2808,277.8302,0.00010517,1.386e-05,0.0,0 STARLINK-4033,1 52702U 22053AY  24130.62465898  .00001386  00000-0  10517-3 0  9991,2 52702  53.2176 272.6995 0001037  82.2808 277.8302 15.08830042110081,6917.911,95.438,540.493,539.058,0.0
52702.0,STARLINK-4033,PAYLOAD,2024-05-09 16:34:53,15.08832102,9.96e-05,53.218,272.4042,60.4703,299.6388,0.00014237,1.978e-05,0.0,0 STARLINK-4033,1 52702U 22053AY  24130.69089801  .00001978  00000-0  14237-3 0  9994,2 52702  53.2180 272.4042 0000996  60.4703 299.6388 15.08832102110098,6917.905,95.438,540.459,539.081,0.0
52702.0,STARLINK-4033,PAYLOAD,2024-05-10 13:14:54,15.08839778,9.7e-05,53.218,268.5382,82.1333,277.9769,0.00012758,1.743e-05,0.0,0 STARLINK-4033,1 52702U 22053AY  24131.55201511  .00001743  00000-0  12758-3 0  9990,2 52702  53.2180 268.5382 0000970  82.1333 277.9769 15.08839778109819,6917.881,95.438,540.417,539.075,0.0
52702.0,STARLINK-4033,PAYLOAD,2024-05-10 14:50:17,15.08839493,9.77e-05,53.2183,268.2409,82.8929,277.2174,0.00012152,1.647e-05,0.0,0 STARLINK-4033,1 52702U 22053AY  24131.61825550  .00001647  00000-0  12152-3 0  9993,2 52702  53.2183 268.2409 0000977  82.8929 277.2174 15.08839493110239,6917.882,95.438,540.423,539.071,0.0
52702.0,STARLINK-4033,PAYLOAD,2024-05-10 18:01:03,15.08839102,0.0001036,53.2185,267.6457,89.1875,270.9236,0.00011802,1.591e-05,0.0,0 STARLINK-4033,1 52702U 22053AY  24131.75073606  .00001591  00000-0  11802-3 0  9994,2 52702  53.2185 267.6457 0001036  89.1875 270.9236 15.08839102110252,6917.883,95.438,540.465,539.031,0.0
52702.0,STARLINK-4033,PAYLOAD,2024-05-11 13:05:37,15.08898158,3.1e-05,53.2181,264.0761,68.4948,291.6077,0.00087657,0.00013713,0.0,0 STARLINK-4033,1 52702U 22053AY  24132.54557012  .00013713  00000-0  87657-3 0  9990,2 52702  53.2181 264.0761 0000310  68.4948 291.6077 15.08898158109967,6917.703,95.434,539.782,539.353,0.0
52702.0,STARLINK-4033,PAYLOAD,2024-05-11 17:51:48,15.08803211,0.0001317,53.2164,263.1826,164.7364,195.3668,-0.0015901,-0.0002548,0.0,0 STARLINK-4033,1 52702U 22053AY  24132.74430742 -.00025480  00000-0 -15901-2 0  9990,2 52702  53.2164 263.1826 0001317 164.7364 195.3668 15.08803211109995,6917.993,95.44,540.769,538.947,0.0
52702.0,STARLINK-4033,PAYLOAD,2024-05-12 01:48:45,15.08794316,6.47e-05,53.2155,261.6946,110.1379,249.9683,-0.0011199,-0.00018044,0.0,0 STARLINK-4033,1 52702U 22053AY  24133.07552682 -.00018044  00000-0 -11199-2 0  9998,2 52702  53.2155 261.6946 0000647 110.1379 249.9683 15.08794316110043,6918.02,95.44,540.333,539.437,0.0
52702.0,STARLINK-4033,PAYLOAD,2024-05-12 12:56:31,15.08745274,0.0001501,53.2176,259.6155,105.5164,254.5994,-0.0017125,-0.00027369,0.0,0 STARLINK-4033,1 52702U 22053AY  24133.53924953 -.00027369  00000-0 -17125-2 0  9998,2 52702  53.2176 259.6155 0001501 105.5164 254.5994 15.08745274110119,6918.17,95.444,541.073,538.997,0.0
52702.0,STARLINK-4033,PAYLOAD,2024-05-12 14:31:54,15.08767904,0.000126,53.2163,259.3168,126.9686,233.1421,-0.0011324,-0.00018229,0.0,0 STARLINK-4033,1 52702U 22053AY  24133.60549079 -.00018229  00000-0 -11324-2 0  9998,2 52702  53.2163 259.3168 0001260 126.9686 233.1421 15.08767904110532,6918.101,95.442,540.837,539.094,0.0
52702.0,STARLINK-4033,PAYLOAD,2024-05-12 16:07:17,15.08794831,0.0001075,53.2173,259.021,105.9003,254.2108,-0.00040889,-6.781e-05,0.0,0 STARLINK-4033,1 52702U 22053AY  24133.67172564 -.00006781  00000-0 -40889-3 0  9995,2 52702  53.2173 259.0210 0001075 105.9003 254.2108 15.08794831110133,6918.018,95.44,540.627,539.14,0.0
52702.0,STARLINK-4033,PAYLOAD,2024-05-13 08:01:10,15.08800029,0.0001227,53.2172,256.0476,126.6094,233.5011,0.0014736,0.00023216,0.0,0 STARLINK-4033,1 52702U 22053AY  24134.33414867  .00023216  00000-0  14736-2 0  9995,2 52702  53.2172 256.0476 0001227 126.6094 233.5011 15.08800029110233,6918.003,95.44,540.716,539.019,0.0
52702.0,STARLINK-4033,PAYLOAD,2024-05-13 14:22:42,15.08842996,0.0001455,53.2163,254.857,121.9819,238.1314,0.0020261,0.00032107,0.0,0 STARLINK-4033,1 52702U 22053AY  24134.59910359  .00032107  00000-0  20261-2 0  9999,2 52702  53.2163 254.8570 0001455 121.9819 238.1314 15.08842996110685,6917.871,95.437,540.743,538.73,0.0
52702.0,STARLINK-4033,PAYLOAD,2024-05-14 12:38:04,15.08866629,0.0001224,53.2178,250.6959,113.7026,246.4095,0.0011577,0.00018198,0.0,0 STARLINK-4033,1 52702U 22053AY  24135.52644283  .00018198  00000-0  11577-2 0  9997,2 52702  53.2178 250.6959 0001224 113.7026 246.4095 15.08866629110417,6917.799,95.436,540.511,538.817,0.0
52702.0,STARLINK-4033,PAYLOAD,2024-05-14 14:13:27,15.08869562,0.0001197,53.2178,250.3984,118.789,241.3222,0.0011242,0.00017663,0.0,0 STARLINK-4033,1 52702U 22053AY  24135.59268035  .00017663  00000-0  11242-2 0  9996,2 52702  53.2178 250.3984 0001197 118.7890 241.3222 15.08869562110836,6917.79,95.436,540.483,538.827,0.0
52702.0,STARLINK-4033,PAYLOAD,2024-05-15 12:28:48,15.08877929,0.0001448,53.2172,246.2307,126.1683,233.9443,-2.7048e-06,-3.31e-06,0.0,0 STARLINK-4033,1 52702U 22053AY  24136.52000880 -.00000331  00000-0 -27048-5 0  9992,2 52702  53.2172 246.2307 0001448 126.1683 233.9443 15.08877929110978,6917.764,95.435,540.631,538.628,0.0
52702.0,STARLINK-4033,PAYLOAD,2024-05-15 17:14:57,15.08878547,0.0001473,53.2172,245.3383,126.5443,233.5685,1.4039e-06,-2.66e-06,0.0,0 STARLINK-4033,1 52702U 22053AY  24136.71872317 -.00000266  00000-0  14039-5 0  9997,2 52702  53.2172 245.3383 0001473 126.5443 233.5685 15.08878547110597,6917.763,95.435,540.647,538.609,0.0
52702.0,STARLINK-4033,PAYLOAD,2024-05-16 12:19:36,15.08840633,0.0001756,53.2186,241.7691,135.6371,224.4762,-0.0002299,-3.945e-05,0.0,0 STARLINK-4033,1 52702U 22053AY  24137.51362194 -.00003945  00000-0 -22990-3 0  9994,2 52702  53.2186 241.7691 0001756 135.6371 224.4762 15.08840633110713,6917.878,95.438,540.958,538.529,0.0
52702.0,STARLINK-4033,PAYLOAD,2024-05-16 13:54:59,15.0884513,0.0001128,53.2182,241.479,124.4343,235.6756,-0.00023458,-4.02e-05,0.0,0 STARLINK-4033,1 52702U 22053AY  24137.57986097 -.00004020  00000-0 -23458-3 0  9999,2 52702  53.2182 241.4790 0001128 124.4343 235.6756 15.08845130111135,6917.865,95.437,540.51,538.949,0.0
52702.0,STARLINK-4033,PAYLOAD,2024-05-16 23:27:16,15.08860212,0.0001271,53.2193,239.6886,116.8001,243.3122,-3.1044e-05,-7.82e-06,0.0,0 STARLINK-4033,1 52702U 22053AY  24137.97727966 -.00000782  00000-0 -31044-4 0  9993,2 52702  53.2193 239.6886 0001271 116.8001 243.3122 15.08860212110788,6917.819,95.436,540.563,538.804,0.0
52702.0,STARLINK-4033,PAYLOAD,2024-05-17 13:45:45,15.08854939,0.0001006,53.2178,237.0122,105.332,254.7784,1.785e-05,-4e-08,0.0,0 STARLINK-4033,1 52702U 22053AY  24138.57344013 -.00000004  00000-0  17850-4 0  9993,2 52702  53.2178 237.0122 0001006 105.3320 254.7784 15.08854939110878,6917.835,95.437,540.396,539.004,0.0
52702.0,STARLINK-4033,PAYLOAD,2024-05-17 23:18:02,15.08866646,9.61e-05,53.2178,235.2277,94.0695,266.0407,0.00010971,1.46e-05,0.0,0 STARLINK-4033,1 52702U 22053AY  24138.97086541  .00001460  00000-0  10971-3 0  9998,2 52702  53.2178 235.2277 0000961  94.0695 266.0407 15.08866646110930,6917.799,95.436,540.329,538.999,0.0
52702.0,STARLINK-4033,PAYLOAD,2024-05-18 12:01:09,15.0883461,0.0001597,53.2189,232.8517,118.9899,241.1254,0.0002222,3.25e-05,0.0,0 STARLINK-4033,1 52702U 22053AY  24139.50080415  .00003250  00000-0  22220-3 0  9991,2 52702  53.2189 232.8517 0001597 118.9899 241.1254 15.08834610111010,6917.897,95.438,540.867,538.657,0.0
52702.0,STARLINK-4033,PAYLOAD,2024-05-18 13:36:32,15.08848665,0.0001079,53.2166,232.5534,73.5007,286.6103,0.00036774,5.571e-05,0.0,0 STARLINK-4033,1 52702U 22053AY  24139.56704004  .00005571  00000-0  36774-3 0  9991,2 52702  53.2166 232.5534 0001079  73.5007 286.6103 15.08848665111431,6917.854,95.437,540.465,538.972,0.0
52702.0,STARLINK-4033,PAYLOAD,2024-05-18 23:08:51,15.08828964,0.0001291,53.2181,230.7696,92.5982,267.5158,-0.00019574,-3.401e-05,0.0,0 STARLINK-4033,1 52702U 22053AY  24139.96448980 -.00003401  00000-0 -19574-3 0  9994,2 52702  53.2181 230.7696 0001291  92.5982 267.5158 15.08828964111085,6917.914,95.438,540.672,538.886,0.0
52702.0,STARLINK-4033,PAYLOAD,2024-05-19 13:27:22,15.08814835,0.0001267,53.2175,228.0895,78.4669,281.6465,-0.00040345,-6.699e-05,0.0,0 STARLINK-4033,1 52702U 22053AY  24140.56067131 -.00006699  00000-0 -40345-3 0  9999,2 52702  53.2175 228.0895 0001267  78.4669 281.6465 15.08814835111582,6917.957,95.439,540.699,538.946,0.0
52702.0,STARLINK-4033,PAYLOAD,2024-05-19 15:02:45,15.08814887,0.000124,53.2175,227.7933,92.4853,267.6281,-0.00037094,-6.182e-05,0.0,0 STARLINK-4033,1 52702U 22053AY  24140.62691210 -.00006182  00000-0 -37094-3 0  9991,2 52702  53.2175 227.7933 0001240  92.4853 267.6281 15.08814887111186,6917.957,95.439,540.68,538.964,0.0
52702.0,STARLINK-4033,PAYLOAD,2024-05-20 11:42:45,15.08838072,0.0001607,53.2167,223.9311,78.3316,281.7856,0.00016841,2.393e-05,0.0,0 STARLINK-4033,1 52702U 22053AY  24141.48802913  .00002393  00000-0  16841-3 0  9995,2 52702  53.2167 223.9311 0001607  78.3316 281.7856 15.08838072111311,6917.886,95.438,540.863,538.64,0.0
52702.0,STARLINK-4033,PAYLOAD,2024-05-20 13:18:08,15.08858025,0.0001259,53.2169,223.6346,77.2969,282.8164,0.00042322,6.457e-05,0.0,0 STARLINK-4033,1 52702U 22053AY  24141.55425993  .00006457  00000-0  42322-3 0  9990,2 52702  53.2169 223.6346 0001259  77.2969 282.8164 15.08858025111733,6917.825,95.436,540.561,538.819,0.0
